0 COSMOS 2251 DEB
1 34620U 93036WR  13281.31798759  .00003505  00000-0  17701-2 0  8541
2 34620 074.0700 275.6939 0140824 326.9070 091.5545 14.11583329236166
0 COSMOS 2251 DEB
1 34620U 93036WR  13282.38294279  .00004550  00000-0  22924-2 0  8552
2 34620 074.0698 273.8182 0140909 324.8254 103.3008 14.11598499236314
0 COSMOS 2251 DEB
1 34620U 93036WR  13283.66867019  .00004568  00000-0  23020-2 0  8560
2 34620 074.0706 271.5560 0140621 322.2488 157.0680 14.11606684236498
0 COSMOS 2251 DEB
1 34620U 93036WR  13285.99480784  .00004191  00000-0  21126-2 0  8576
2 34620 074.0705 267.4598 0140663 317.6434 098.0132 14.11624969236826
0 COSMOS 2251 DEB
1 34620U 93036WR  13287.27095057  .00004534  00000-0  22838-2 0  8587
2 34620 074.0705 265.2134 0140646 315.0949 103.1948 14.11633126237001
0 COSMOS 2251 DEB
1 34620U 93036WR  13289.32804522  .00005463  00000-0  27477-2 0  8597
2 34620 074.0710 261.5903 0140648 311.0343 117.1255 14.11653858237297
0 COSMOS 2251 DEB
1 34620U 93036WR  13290.61419247  .00005654  00000-0  28425-2 0  8605
2 34620 074.0717 259.3250 0140691 308.5068 173.2434 14.11664934237476
0 COSMOS 2251 DEB
1 34620U 93036WR  13292.23178361  .00004743  00000-0  23864-2 0  8615
2 34620 074.0723 256.4760 0140681 305.3182 113.8274 14.11679532237706
0 COSMOS 2251 DEB
1 34620U 93036WR  13293.59034900  .00005004  00000-0  25162-2 0  8620
2 34620 074.0726 254.0831 0140684 302.6556 178.0934 14.11690872237896
0 COSMOS 2251 DEB
1 34620U 93036WR  13295.29225766  .00005722  00000-0  28747-2 0  8631
2 34620 074.0729 251.0866 0140643 299.3075 187.3316 14.11705119238133
